{
  "type": "FeatureCollection",
  "features": [
    {
      "type": "Feature",
      "properties": {
        "norad_id": 66953,
        "name": "HULIANWANG DIGUI-114",
        "group": "last-30-days",
        "lat": 39.99357461444324,
        "lon": -13.660404431792262,
        "alt_km": 1010.9463215748665,
        "timestamp": "2025-12-20T07:33:49.515981+00:00",
        "meta_object_name": "HULIANWANG DIGUI-114",
        "meta_object_id": "2025-287A",
        "meta_epoch": "2025-12-18T14:58:33.375360",
        "meta_mean_motion": 13.67416524,
        "meta_eccentricity": 0.00087038,
        "meta_inclination": 86.4968,
        "meta_ra_of_asc_node": 344.0089,
        "meta_arg_of_pericenter": 188.5983,
        "meta_mean_anomaly": 171.5028,
        "meta_ephemeris_type": 0,
        "meta_classification_type": "U",
        "meta_norad_cat_id": 66953,
        "meta_element_set_no": 999,
        "meta_rev_at_epoch": 133,
        "meta_bstar": 1.0869035e-05,
        "meta_mean_motion_dot": 2.6e-07,
        "meta_mean_motion_ddot": 0,
        "tle_line1": "1 66953U 25287A   25352.62399740  .00000026  00000+0  10869-4 0  9995",
        "tle_line2": "2 66953  86.4968 344.0089 0008703 188.5983 171.5028 13.67416524  1330"
      },
      "geometry": {
        "type": "Point",
        "coordinates": [
          -13.660404431792262,
          39.99357461444324
        ]
      }
    },
    {
      "type": "Feature",
      "properties": {
        "norad_id": 66954,
        "name": "HULIANWANG DIGUI-115",
        "group": "last-30-days",
        "lat": 44.31205579613842,
        "lon": -13.173960933413314,
        "alt_km": 1009.6006094539516,
        "timestamp": "2025-12-20T07:33:49.515992+00:00",
        "meta_object_name": "HULIANWANG DIGUI-115",
        "meta_object_id": "2025-287B",
        "meta_epoch": "2025-12-18T14:57:30.566880",
        "meta_mean_motion": 13.67541232,
        "meta_eccentricity": 0.00089471,
        "meta_inclination": 86.4978,
        "meta_ra_of_asc_node": 344.0137,
        "meta_arg_of_pericenter": 187.4507,
        "meta_mean_anomaly": 172.652,
        "meta_ephemeris_type": 0,
        "meta_classification_type": "U",
        "meta_norad_cat_id": 66954,
        "meta_element_set_no": 999,
        "meta_rev_at_epoch": 133,
        "meta_bstar": 1.0944943e-05,
        "meta_mean_motion_dot": 2.6e-07,
        "meta_mean_motion_ddot": 0,
        "tle_line1": "1 66954U 25287B   25352.62327045  .00000026  00000+0  10945-4 0  9990",
        "tle_line2": "2 66954  86.4978 344.0137 0008947 187.4507 172.6520 13.67541232  1330"
      },
      "geometry": {
        "type": "Point",
        "coordinates": [
          -13.173960933413314,
          44.31205579613842
        ]
      }
    },
    {
      "type": "Feature",
      "properties": {
        "norad_id": 66955,
        "name": "HULIANWANG DIGUI-116",
        "group": "last-30-days",
        "lat": 48.93852009695806,
        "lon": -12.574222314612703,
        "alt_km": 1007.3913444041673,
        "timestamp": "2025-12-20T07:33:49.516003+00:00",
        "meta_object_name": "HULIANWANG DIGUI-116",
        "meta_object_id": "2025-287C",
        "meta_epoch": "2025-12-18T14:56:21.725088",
        "meta_mean_motion": 13.67658665,
        "meta_eccentricity": 0.00085044,
        "meta_inclination": 86.4902,
        "meta_ra_of_asc_node": 344.003,
        "meta_arg_of_pericenter": 181.1085,
        "meta_mean_anomaly": 179.0056,
        "meta_ephemeris_type": 0,
        "meta_classification_type": "U",
        "meta_norad_cat_id": 66955,
        "meta_element_set_no": 999,
        "meta_rev_at_epoch": 133,
        "meta_bstar": 0.00014472334,
        "meta_mean_motion_dot": 1.39e-06,
        "meta_mean_motion_ddot": 0,
        "tle_line1": "1 66955U 25287C   25352.62247367  .00000139  00000+0  14472-3 0  9992",
        "tle_line2": "2 66955  86.4902 344.0030 0008504 181.1085 179.0056 13.67658665  1335"
      },
      "geometry": {
        "type": "Point",
        "coordinates": [
          -12.574222314612703,
          48.93852009695806
        ]
      }
    },
    {
      "type": "Feature",
      "properties": {
        "norad_id": 66956,
        "name": "HULIANWANG DIGUI-117",
        "group": "last-30-days",
        "lat": 53.57594550650213,
        "lon": -11.842156229884239,
        "alt_km": 1005.2229440097208,
        "timestamp": "2025-12-20T07:33:49.516032+00:00",
        "meta_object_name": "HULIANWANG DIGUI-117",
        "meta_object_id": "2025-287D",
        "meta_epoch": "2025-12-18T14:55:12.079776",
        "meta_mean_motion": 13.67770338,
        "meta_eccentricity": 0.00076767,
        "meta_inclination": 86.4971,
        "meta_ra_of_asc_node": 344.0126,
        "meta_arg_of_pericenter": 176.3616,
        "meta_mean_anomaly": 183.76,
        "meta_ephemeris_type": 0,
        "meta_classification_type": "U",
        "meta_norad_cat_id": 66956,
        "meta_element_set_no": 999,
        "meta_rev_at_epoch": 133,
        "meta_bstar": 1.0922436e-05,
        "meta_mean_motion_dot": 2.6e-07,
        "meta_mean_motion_ddot": 0,
        "tle_line1": "1 66956U 25287D   25352.62166759  .00000026  00000+0  10922-4 0  9990",
        "tle_line2": "2 66956  86.4971 344.0126 0007676 176.3616 183.7600 13.67770338  1332"
      },
      "geometry": {
        "type": "Point",
        "coordinates": [
          -11.842156229884239,
          53.57594550650213
        ]
      }
    },
    {
      "type": "Feature",
      "properties": {
        "norad_id": 66957,
        "name": "HULIANWANG DIGUI-118",
        "group": "last-30-days",
        "lat": 58.30390433189652,
        "lon": -10.91450006188335,
        "alt_km": 1003.741693630097,
        "timestamp": "2025-12-20T07:33:49.516044+00:00",
        "meta_object_name": "HULIANWANG DIGUI-118",
        "meta_object_id": "2025-287E",
        "meta_epoch": "2025-12-19T17:14:01.622976",
        "meta_mean_motion": 13.67870424,
        "meta_eccentricity": 0.00073636,
        "meta_inclination": 86.4967,
        "meta_ra_of_asc_node": 343.6097,
        "meta_arg_of_pericenter": 172.7883,
        "meta_mean_anomaly": 187.3383,
        "meta_ephemeris_type": 0,
        "meta_classification_type": "U",
        "meta_norad_cat_id": 66957,
        "meta_element_set_no": 999,
        "meta_rev_at_epoch": 148,
        "meta_bstar": 0.00013028429,
        "meta_mean_motion_dot": 1.27e-06,
        "meta_mean_motion_ddot": 0,
        "tle_line1": "1 66957U 25287E   25353.71807434  .00000127  00000+0  13028-3 0  9995",
        "tle_line2": "2 66957  86.4967 343.6097 0007363 172.7883 187.3383 13.67870424  1480"
      },
      "geometry": {
        "type": "Point",
        "coordinates": [
          -10.91450006188335,
          58.30390433189652
        ]
      }
    },
    {
      "type": "Feature",
      "properties": {
        "norad_id": 66958,
        "name": "CZ-6A R/B",
        "group": "last-30-days",
        "lat": 43.37577903556697,
        "lon": -13.470023767175707,
        "alt_km": 844.1467570842578,
        "timestamp": "2025-12-20T07:33:49.516054+00:00",
        "meta_object_name": "CZ-6A R/B",
        "meta_object_id": "2025-287F",
        "meta_epoch": "2025-12-19T22:45:01.819008",
        "meta_mean_motion": 13.94920836,
        "meta_eccentricity": 0.01072909,
        "meta_inclination": 86.506,
        "meta_ra_of_asc_node": 343.3602,
        "meta_arg_of_pericenter": 80.4872,
        "meta_mean_anomaly": 280.8408,
        "meta_ephemeris_type": 0,
        "meta_classification_type": "U",
        "meta_norad_cat_id": 66958,
        "meta_element_set_no": 999,
        "meta_rev_at_epoch": 154,
        "meta_bstar": 3.2633793e-05,
        "meta_mean_motion_dot": 6.5e-07,
        "meta_mean_motion_ddot": 0,
        "tle_line1": "1 66958U 25287F   25353.94793772  .00000065  00000+0  32634-4 0  9996",
        "tle_line2": "2 66958  86.5060 343.3602 0107290  80.4872 280.8408 13.94920836  1545"
      },
      "geometry": {
        "type": "Point",
        "coordinates": [
          -13.470023767175707,
          43.37577903556697
        ]
      }
    },
    {
      "type": "Feature",
      "properties": {
        "norad_id": 66959,
        "name": "STARLINK-35887",
        "group": "last-30-days",
        "lat": 6.786689758203127,
        "lon": 128.11727098592897,
        "alt_km": 322.88918071438,
        "timestamp": "2025-12-20T07:33:49.516066+00:00",
        "meta_object_name": "STARLINK-35887",
        "meta_object_id": "2025-288A",
        "meta_epoch": "2025-12-19T19:24:18.502272",
        "meta_mean_motion": 15.82934679,
        "meta_eccentricity": 0.00017974,
        "meta_inclination": 43.0016,
        "meta_ra_of_asc_node": 123.8892,
        "meta_arg_of_pericenter": 263.6287,
        "meta_mean_anomaly": 96.438,
        "meta_ephemeris_type": 0,
        "meta_classification_type": "U",
        "meta_norad_cat_id": 66959,
        "meta_element_set_no": 999,
        "meta_rev_at_epoch": 296,
        "meta_bstar": -0.0025859261,
        "meta_mean_motion_dot": -0.00535482,
        "meta_mean_motion_ddot": 0,
        "tle_line1": "1 66959U 25288A   25353.80854748 -.00535482  00000+0 -25859-2 0  9991",
        "tle_line2": "2 66959  43.0016 123.8892 0001797 263.6287  96.4380 15.82934679  2963"
      },
      "geometry": {
        "type": "Point",
        "coordinates": [
          128.11727098592897,
          6.786689758203127
        ]
      }
    }
  ]
}